start=new Date('2023-01-25T00:00:00.000Z').valueOf();
sats=[{"BSTAR":"0.00063730000000","TLE_LINE1":"1 51873U 22022X   23024.21429632  .00009869  00000-0  63730-3 0  9996","COUNTRY_CODE":"US","LAUNCH_DATE":"2022-03-03","REV_AT_EPOCH":"5094","MEAN_MOTION":"15.08839903","ECCENTRICITY":"0.00017680","OBJECT_NAME":"STARLINK-3582","TLE_LINE2":"2 51873  53.2153  88.9178 0001768  98.9021 261.2172 15.08839903 50942","MEAN_MOTION_DOT":"0.00009869","OBJECT_ID":"2022-022X","RCS_SIZE":"LARGE","DECAY_DATE":null,"TIME_SYSTEM":"UTC","PERIAPSIS":"538.523","REF_FRAME":"TEME","CLASSIFICATION_TYPE":"U","APOAPSIS":"540.969","CENTER_NAME":"EARTH","MEAN_MOTION_DDOT":"0.0000000000000","OBJECT_TYPE":"PAYLOAD","SITE":"AFETR","MEAN_ELEMENT_THEORY":"SGP4","PERIOD":"95.438","ARG_OF_PERICENTER":"98.9021","EPOCH":"2023-01-24T05:08:35.202048","FILE":"3759643","NORAD_CAT_ID":"51873","MEAN_ANOMALY":"261.2172","SEMIMAJOR_AXIS":"6917.881","RA_OF_ASC_NODE":"88.9178","INCLINATION":"53.2153","ELEMENT_SET_NO":"999","EPHEMERIS_TYPE":"0","GP_ID":"223631314"},{"RA_OF_ASC_NODE":"87.7034","SEMIMAJOR_AXIS":"6917.863","NORAD_CAT_ID":"51874","MEAN_ANOMALY":"259.9759","ELEMENT_SET_NO":"999","EPHEMERIS_TYPE":"0","GP_ID":"223635611","INCLINATION":"53.2135","ARG_OF_PERICENTER":"100.1371","SITE":"AFETR","PERIOD":"95.437","MEAN_ELEMENT_THEORY":"SGP4","OBJECT_TYPE":"PAYLOAD","CENTER_NAME":"EARTH","MEAN_MOTION_DDOT":"0.0000000000000","FILE":"3759850","EPOCH":"2023-01-24T11:40:43.154976","TIME_SYSTEM":"UTC","OBJECT_ID":"2022-022Y","RCS_SIZE":"LARGE","DECAY_DATE":null,"MEAN_MOTION_DOT":"0.00002500","TLE_LINE2":"2 51874  53.2135  87.7034 0001216 100.1371 259.9759 15.08845600 50972","CLASSIFICATION_TYPE":"U","APOAPSIS":"540.569","REF_FRAME":"TEME","PERIAPSIS":"538.887","TLE_LINE1":"1 51874U 22022Y   23024.48661059  .00002500  00000-0  17506-3 0  9992","BSTAR":"0.00017506000000","MEAN_MOTION":"15.08845600","ECCENTRICITY":"0.00012160","OBJECT_NAME":"STARLINK-3574","LAUNCH_DATE":"2022-03-03","REV_AT_EPOCH":"5097","COUNTRY_CODE":"US"},{"EPOCH":"2023-01-24T09:45:31.313088","FILE":"3759850","OBJECT_TYPE":"PAYLOAD","MEAN_MOTION_DDOT":"0.0000000000000","CENTER_NAME":"EARTH","ARG_OF_PERICENTER":"106.9398","PERIOD":"95.438","MEAN_ELEMENT_THEORY":"SGP4","SITE":"AFETR","INCLINATION":"53.2139","GP_ID":"223635617","EPHEMERIS_TYPE":"0","ELEMENT_SET_NO":"999","NORAD_CAT_ID":"51875","MEAN_ANOMALY":"253.1741","SEMIMAJOR_AXIS":"6917.883","RA_OF_ASC_NODE":"88.0581","COUNTRY_CODE":"US","OBJECT_NAME":"STARLINK-3585","ECCENTRICITY":"0.00013370","MEAN_MOTION":"15.08839089","REV_AT_EPOCH":"5097","LAUNCH_DATE":"2022-03-03","BSTAR":"0.00020833000000","TLE_LINE1":"1 51875U 22022Z   23024.40661242  .00003029  00000-0  20833-3 0  9993","PERIAPSIS":"538.823","APOAPSIS":"540.673","CLASSIFICATION_TYPE":"U","REF_FRAME":"TEME","MEAN_MOTION_DOT":"0.00003029","TLE_LINE2":"2 51875  53.2139  88.0581 0001337 106.9398 253.1741 15.08839089 50976","TIME_SYSTEM":"UTC","DECAY_DATE":null,"RCS_SIZE":"LARGE","OBJECT_ID":"2022-022Z"},{"OBJECT_NAME":"STARLINK-3583","MEAN_MOTION":"15.08845805","ECCENTRICITY":"0.00014710","REV_AT_EPOCH":"5098","LAUNCH_DATE":"2022-03-03","COUNTRY_CODE":"US","TLE_LINE1":"1 51876U 22022AA  23024.48293577  .00009291  00000-0  60097-3 0  9997","BSTAR":"0.00060097000000","APOAPSIS":"540.745","CLASSIFICATION_TYPE":"U","REF_FRAME":"TEME","PERIAPSIS":"538.710","TIME_SYSTEM":"UTC","DECAY_DATE":null,"RCS_SIZE":"LARGE","OBJECT_ID":"2022-022AA","MEAN_MOTION_DOT":"0.00009291","TLE_LINE2":"2 51876  53.2156  87.7078 0001471 107.6631 252.4522 15.08845805 50983","FILE":"3760179","EPOCH":"2023-01-24T11:35:25.650528","ARG_OF_PERICENTER":"107.6631","MEAN_ELEMENT_THEORY":"SGP4","PERIOD":"95.437","SITE":"AFETR","OBJECT_TYPE":"PAYLOAD","MEAN_MOTION_DDOT":"0.0000000000000","CENTER_NAME":"EARTH","GP_ID":"223641710","EPHEMERIS_TYPE":"0","ELEMENT_SET_NO":"999","INCLINATION":"53.2156","RA_OF_ASC_NODE":"87.7078","SEMIMAJOR_AXIS":"6917.863","NORAD_CAT_ID":"51876","MEAN_ANOMALY":"252.4522"},{"ELEMENT_SET_NO":"999","EPHEMERIS_TYPE":"0","GP_ID":"223629375","INCLINATION":"53.2164","RA_OF_ASC_NODE":"78.9832","SEMIMAJOR_AXIS":"6917.892","NORAD_CAT_ID":"51877","MEAN_ANOMALY":"269.5730","FILE":"3759581","EPOCH":"2023-01-24T04:48:42.993504","SITE":"AFETR","PERIOD":"95.438","MEAN_ELEMENT_THEORY":"SGP4","ARG_OF_PERICENTER":"90.5434","CENTER_NAME":"EARTH","MEAN_MOTION_DDOT":"0.0000000000000","OBJECT_TYPE":"PAYLOAD","REF_FRAME":"TEME","CLASSIFICATION_TYPE":"U","APOAPSIS":"540.796","PERIAPSIS":"538.718","OBJECT_ID":"2022-022AB","RCS_SIZE":"LARGE","DECAY_DATE":null,"TIME_SYSTEM":"UTC","TLE_LINE2":"2 51877  53.2164  78.9832 0001502  90.5434 269.5730 15.08836299 51077","MEAN_MOTION_DOT":"0.00001634","LAUNCH_DATE":"2022-03-03","REV_AT_EPOCH":"5107","ECCENTRICITY":"0.00015020","MEAN_MOTION":"15.08836299","OBJECT_NAME":"STARLINK-3556","COUNTRY_CODE":"US","TLE_LINE1":"1 51877U 22022AB  23024.20049761  .00001634  00000-0  12073-3 0  9996","BSTAR":"0.00012073000000"},{"RA_OF_ASC_NODE":"87.4536","SEMIMAJOR_AXIS":"6917.855","NORAD_CAT_ID":"51878","MEAN_ANOMALY":"272.8639","GP_ID":"223642108","EPHEMERIS_TYPE":"0","ELEMENT_SET_NO":"999","INCLINATION":"53.2134","MEAN_ELEMENT_THEORY":"SGP4","PERIOD":"95.437","SITE":"AFETR","ARG_OF_PERICENTER":"87.2462","MEAN_MOTION_DDOT":"0.0000000000000","CENTER_NAME":"EARTH","OBJECT_TYPE":"PAYLOAD","FILE":"3760179","EPOCH":"2023-01-24T13:00:12.259584","RCS_SIZE":"LARGE","DECAY_DATE":null,"OBJECT_ID":"2022-022AC","TIME_SYSTEM":"UTC","TLE_LINE2":"2 51878  53.2134  87.4536 0000954  87.2462 272.8639 15.08848376 50999","MEAN_MOTION_DOT":"0.00000663","REF_FRAME":"TEME","APOAPSIS":"540.380","CLASSIFICATION_TYPE":"U","PERIAPSIS":"539.060","TLE_LINE1":"1 51878U 22022AC  23024.54180856  .00000663  00000-0  59730-4 0  9998","BSTAR":"0.00005973000000","REV_AT_EPOCH":"5099","LAUNCH_DATE":"2022-03-03","OBJECT_NAME":"STARLINK-3575","ECCENTRICITY":"0.00009540","MEAN_MOTION":"15.08848376","COUNTRY_CODE":"US"},{"FILE":"3759583","EPOCH":"2023-01-24T04:38:06.914976","ARG_OF_PERICENTER":"110.7815","SITE":"AFETR","PERIOD":"95.437","MEAN_ELEMENT_THEORY":"SGP4","OBJECT_TYPE":"PAYLOAD","CENTER_NAME":"EARTH","MEAN_MOTION_DDOT":"0.0000000000000","ELEMENT_SET_NO":"999","GP_ID":"223629397","EPHEMERIS_TYPE":"0","INCLINATION":"53.2143","SEMIMAJOR_AXIS":"6917.872","RA_OF_ASC_NODE":"79.0143","NORAD_CAT_ID":"51879","MEAN_ANOMALY":"249.3305","MEAN_MOTION":"15.08842802","ECCENTRICITY":"0.00011980","OBJECT_NAME":"STARLINK-3572","LAUNCH_DATE":"2022-03-03","REV_AT_EPOCH":"5107","COUNTRY_CODE":"US","TLE_LINE1":"1 51879U 22022AD  23024.19313559  .00013175  00000-0  84426-3 0  9999","BSTAR":"0.00084426000000","CLASSIFICATION_TYPE":"U","APOAPSIS":"540.566","REF_FRAME":"TEME","PERIAPSIS":"538.908","TIME_SYSTEM":"UTC","OBJECT_ID":"2022-022AD","DECAY_DATE":null,"RCS_SIZE":"LARGE","MEAN_MOTION_DOT":"0.00013175","TLE_LINE2":"2 51879  53.2143  79.0143 0001198 110.7815 249.3305 15.08842802 51073"},{"PERIAPSIS":"538.955","REF_FRAME":"TEME","CLASSIFICATION_TYPE":"U","APOAPSIS":"540.437","TLE_LINE2":"2 51880  53.2139  89.0903 0001071  84.1760 275.9354 15.08856039 50938","MEAN_MOTION_DOT":"0.00014634","OBJECT_ID":"2022-022AE","RCS_SIZE":"LARGE","DECAY_DATE":null,"TIME_SYSTEM":"UTC","COUNTRY_CODE":"US","LAUNCH_DATE":"2022-03-03","REV_AT_EPOCH":"5093","ECCENTRICITY":"0.00010710","MEAN_MOTION":"15.08856039","OBJECT_NAME":"STARLINK-3566","BSTAR":"0.00093521000000","TLE_LINE1":"1 51880U 22022AE  23024.17477931  .00014634  00000-0  93521-3 0  9991","INCLINATION":"53.2139","ELEMENT_SET_NO":"999","GP_ID":"223630983","EPHEMERIS_TYPE":"0","NORAD_CAT_ID":"51880","MEAN_ANOMALY":"275.9354","SEMIMAJOR_AXIS":"6917.831","RA_OF_ASC_NODE":"89.0903","EPOCH":"2023-01-24T04:11:40.932384","FILE":"3759648","CENTER_NAME":"EARTH","MEAN_MOTION_DDOT":"0.0000000000000","OBJECT_TYPE":"PAYLOAD","SITE":"AFETR","PERIOD":"95.437","MEAN_ELEMENT_THEORY":"SGP4","ARG_OF_PERICENTER":"84.1760"},{"PERIAPSIS":"538.876","REF_FRAME":"TEME","APOAPSIS":"540.582","CLASSIFICATION_TYPE":"U","TLE_LINE2":"2 51881  53.2133  79.0530 0001233  88.2061 271.9072 15.08845296 51125","MEAN_MOTION_DOT":"0.00002528","RCS_SIZE":"LARGE","DECAY_DATE":null,"OBJECT_ID":"2022-022AF","TIME_SYSTEM":"UTC","COUNTRY_CODE":"US","REV_AT_EPOCH":"5112","LAUNCH_DATE":"2022-03-03","OBJECT_NAME":"STARLINK-3504","ECCENTRICITY":"0.00012330","MEAN_MOTION":"15.08845296","BSTAR":"0.00017685000000","TLE_LINE1":"1 51881U 22022AF  23024.18577616  .00002528  00000-0  17685-3 0  9990","INCLINATION":"53.2133","EPHEMERIS_TYPE":"0","GP_ID":"223629405","ELEMENT_SET_NO":"999","MEAN_ANOMALY":"271.9072","NORAD_CAT_ID":"51881","SEMIMAJOR_AXIS":"6917.864","RA_OF_ASC_NODE":"79.0530","EPOCH":"2023-01-24T04:27:31.060224","FILE":"3759583","MEAN_MOTION_DDOT":"0.0000000000000","CENTER_NAME":"EARTH","OBJECT_TYPE":"PAYLOAD","PERIOD":"95.437","MEAN_ELEMENT_THEORY":"SGP4","SITE":"AFETR","ARG_OF_PERICENTER":"88.2061"},{"FILE":"3759850","EPOCH":"2023-01-24T11:04:57.830880","SITE":"AFETR","MEAN_ELEMENT_THEORY":"SGP4","PERIOD":"95.437","ARG_OF_PERICENTER":"81.4949","CENTER_NAME":"EARTH","MEAN_MOTION_DDOT":"0.0000000000000","OBJECT_TYPE":"PAYLOAD","ELEMENT_SET_NO":"999","GP_ID":"223635619","EPHEMERIS_TYPE":"0","INCLINATION":"53.2159","RA_OF_ASC_NODE":"77.7968","SEMIMAJOR_AXIS":"6917.874","MEAN_ANOMALY":"278.6265","NORAD_CAT_ID":"51882","LAUNCH_DATE":"2022-03-03","REV_AT_EPOCH":"5116","ECCENTRICITY":"0.00019580","MEAN_MOTION":"15.08842123","OBJECT_NAME":"STARLINK-3570","COUNTRY_CODE":"US","TLE_LINE1":"1 51882U 22022AG  23024.46178045  .00007457  00000-0  48612-3 0  9995","BSTAR":"0.00048612000000","REF_FRAME":"TEME","CLASSIFICATION_TYPE":"U","APOAPSIS":"541.093","PERIAPSIS":"538.384","OBJECT_ID":"2022-022AG","DECAY_DATE":null,"RCS_SIZE":"LARGE","TIME_SYSTEM":"UTC","TLE_LINE2":"2 51882  53.2159  77.7968 0001958  81.4949 278.6265 15.08842123 51166","MEAN_MOTION_DOT":"0.00007457"}];
